[{"OBJECT_NAME":"RADARSAT-2","OBJECT_ID":"2007-061A","EPOCH":"2026-03-09T23:01:05.689632","MEAN_MOTION":14.2996427,"ECCENTRICITY":0.00012561,"INCLINATION":98.582,"RA_OF_ASC_NODE":77.296,"ARG_OF_PERICENTER":84.478,"MEAN_ANOMALY":275.6546,"EPHEMERIS_TYPE":0,"CLASSIFICATION_TYPE":"U","NORAD_CAT_ID":32382,"ELEMENT_SET_NO":999,"REV_AT_EPOCH":95177,"BSTAR":-6.0240739e-5,"MEAN_MOTION_DOT":-1.99e-6,"MEAN_MOTION_DDOT":0},{"OBJECT_NAME":"FENGYUN 1C DEB","OBJECT_ID":"1999-025DQC","EPOCH":"2026-03-08T16:06:00.717696","MEAN_MOTION":14.23271727,"ECCENTRICITY":0.00441578,"INCLINATION":99.0175,"RA_OF_ASC_NODE":144.8113,"ARG_OF_PERICENTER":65.0253,"MEAN_ANOMALY":295.5502,"EPHEMERIS_TYPE":0,"CLASSIFICATION_TYPE":"U","NORAD_CAT_ID":35220,"ELEMENT_SET_NO":999,"REV_AT_EPOCH":64405,"BSTAR":0.0017306764,"MEAN_MOTION_DOT":3.913e-5,"MEAN_MOTION_DDOT":0}]
